JINJUSAT-1B             
1 63210U 25052A   26068.66363707  .00019955  00000+0  68430-3 0  9998
2 63210  97.4113 325.4613 0005550  82.1930 277.9941 15.30194857 54866
STARLINK-35652          
1 66393U 25257P   26068.72225568  .00033843  00000+0  11495-2 0  9999
2 66393  53.1596 217.2148 0000924  95.0031 265.1075 15.30202547 19731
